start=new Date('2023-04-20T00:00:00.000Z').valueOf();
sats=[{"PERIOD":"95.590","CLASSIFICATION_TYPE":"U","OBJECT_ID":"2020-055AJ","DECAY_DATE":null,"INCLINATION":"53.0539","REV_AT_EPOCH":"15000","MEAN_ELEMENT_THEORY":"SGP4","TIME_SYSTEM":"UTC","ECCENTRICITY":"0.00011680","BSTAR":"0.00053943000000","OBJECT_NAME":"STARLINK-1570","RA_OF_ASC_NODE":"171.8708","ARG_OF_PERICENTER":"100.6762","COUNTRY_CODE":"US","REF_FRAME":"TEME","FILE":"3890520","EPOCH":"2023-04-19T20:57:06.070752","SEMIMAJOR_AXIS":"6925.263","MEAN_ANOMALY":"259.4358","ELEMENT_SET_NO":"999","CENTER_NAME":"EARTH","OBJECT_TYPE":"PAYLOAD","GP_ID":"230392034","TLE_LINE1":"1 46059U 20055AJ  23109.87298693  .00007768  00000-0  53943-3 0  9998","NORAD_CAT_ID":"46059","MEAN_MOTION_DOT":"0.00007768","TLE_LINE2":"2 46059  53.0539 171.8708 0001168 100.6762 259.4358 15.06427836150005","MEAN_MOTION_DDOT":"0.0000000000000","LAUNCH_DATE":"2020-08-07","APOAPSIS":"547.937","SITE":"AFETR","MEAN_MOTION":"15.06427836","RCS_SIZE":"LARGE","EPHEMERIS_TYPE":"0","PERIAPSIS":"546.319"},{"ARG_OF_PERICENTER":"86.2423","COUNTRY_CODE":"US","REF_FRAME":"TEME","RA_OF_ASC_NODE":"171.8917","FILE":"3890520","EPOCH":"2023-04-19T20:51:48.468672","REV_AT_EPOCH":"15001","MEAN_ELEMENT_THEORY":"SGP4","TIME_SYSTEM":"UTC","ECCENTRICITY":"0.00015650","PERIOD":"95.591","CLASSIFICATION_TYPE":"U","OBJECT_ID":"2020-055AK","INCLINATION":"53.0543","DECAY_DATE":null,"BSTAR":"0.00058243000000","OBJECT_NAME":"STARLINK-1572","LAUNCH_DATE":"2020-08-07","APOAPSIS":"548.252","MEAN_MOTION_DOT":"0.00008408","TLE_LINE2":"2 46060  53.0543 171.8917 0001565  86.2423 273.8745 15.06414804150010","MEAN_MOTION_DDOT":"0.0000000000000","RCS_SIZE":"LARGE","EPHEMERIS_TYPE":"0","PERIAPSIS":"546.084","SITE":"AFETR","MEAN_MOTION":"15.06414804","CENTER_NAME":"EARTH","SEMIMAJOR_AXIS":"6925.303","MEAN_ANOMALY":"273.8745","ELEMENT_SET_NO":"999","NORAD_CAT_ID":"46060","OBJECT_TYPE":"PAYLOAD","TLE_LINE1":"1 46060U 20055AK  23109.86931098  .00008408  00000-0  58243-3 0  9992","GP_ID":"230390784"},{"BSTAR":"0.00096170000000","OBJECT_NAME":"STARLINK-1573","PERIOD":"95.592","OBJECT_ID":"2020-055AL","CLASSIFICATION_TYPE":"U","DECAY_DATE":null,"INCLINATION":"53.0524","REV_AT_EPOCH":"15004","MEAN_ELEMENT_THEORY":"SGP4","ECCENTRICITY":"0.00010810","TIME_SYSTEM":"UTC","FILE":"3890520","EPOCH":"2023-04-19T20:41:13.253280","RA_OF_ASC_NODE":"171.9248","ARG_OF_PERICENTER":"61.4350","COUNTRY_CODE":"US","REF_FRAME":"TEME","OBJECT_TYPE":"PAYLOAD","TLE_LINE1":"1 46061U 20055AL  23109.86195895  .00014072  00000-0  96170-3 0  9995","GP_ID":"230391535","NORAD_CAT_ID":"46061","SEMIMAJOR_AXIS":"6925.352","MEAN_ANOMALY":"298.6748","ELEMENT_SET_NO":"999","CENTER_NAME":"EARTH","SITE":"AFETR","MEAN_MOTION":"15.06398991","EPHEMERIS_TYPE":"0","RCS_SIZE":"LARGE","PERIAPSIS":"546.468","TLE_LINE2":"2 46061  53.0524 171.9248 0001081  61.4350 298.6748 15.06398991150044","MEAN_MOTION_DOT":"0.00014072","MEAN_MOTION_DDOT":"0.0000000000000","LAUNCH_DATE":"2020-08-07","APOAPSIS":"547.965"},{"RA_OF_ASC_NODE":"171.7760","REF_FRAME":"TEME","ARG_OF_PERICENTER":"80.4779","COUNTRY_CODE":"US","EPOCH":"2023-04-19T21:28:56.735904","FILE":"3890502","DECAY_DATE":null,"INCLINATION":"53.0532","OBJECT_ID":"2020-055AM","CLASSIFICATION_TYPE":"U","PERIOD":"95.591","ECCENTRICITY":"0.00015550","TIME_SYSTEM":"UTC","MEAN_ELEMENT_THEORY":"SGP4","REV_AT_EPOCH":"14951","OBJECT_NAME":"STARLINK-1574","BSTAR":"0.00057689000000","MEAN_MOTION_DDOT":"0.0000000000000","TLE_LINE2":"2 46062  53.0532 171.7760 0001555  80.4779 279.6386 15.06418036149513","MEAN_MOTION_DOT":"0.00008326","APOAPSIS":"548.235","LAUNCH_DATE":"2020-08-07","MEAN_MOTION":"15.06418036","SITE":"AFETR","PERIAPSIS":"546.081","RCS_SIZE":"LARGE","EPHEMERIS_TYPE":"0","ELEMENT_SET_NO":"999","MEAN_ANOMALY":"279.6386","SEMIMAJOR_AXIS":"6925.293","CENTER_NAME":"EARTH","GP_ID":"230372107","TLE_LINE1":"1 46062U 20055AM  23109.89510111  .00008326  00000-0  57689-3 0  9998","OBJECT_TYPE":"PAYLOAD","NORAD_CAT_ID":"46062"},{"MEAN_MOTION":"15.06402848","SITE":"AFETR","RCS_SIZE":"LARGE","EPHEMERIS_TYPE":"0","PERIAPSIS":"546.527","MEAN_MOTION_DDOT":"0.0000000000000","MEAN_MOTION_DOT":"-0.00026811","TLE_LINE2":"2 46063  53.0528 171.7900 0000979 102.9919 257.1179 15.06402848149515","APOAPSIS":"547.883","LAUNCH_DATE":"2020-08-07","OBJECT_TYPE":"PAYLOAD","GP_ID":"230372112","TLE_LINE1":"1 46063U 20055AN  23109.89142527 -.00026811  00000-0 -17877-2 0  9996","NORAD_CAT_ID":"46063","MEAN_ANOMALY":"257.1179","ELEMENT_SET_NO":"999","SEMIMAJOR_AXIS":"6925.340","CENTER_NAME":"EARTH","FILE":"3890503","EPOCH":"2023-04-19T21:23:39.143328","RA_OF_ASC_NODE":"171.7900","REF_FRAME":"TEME","ARG_OF_PERICENTER":"102.9919","COUNTRY_CODE":"US","OBJECT_NAME":"STARLINK-1577","BSTAR":"-0.00178770000000","DECAY_DATE":null,"INCLINATION":"53.0528","PERIOD":"95.592","OBJECT_ID":"2020-055AN","CLASSIFICATION_TYPE":"U","MEAN_ELEMENT_THEORY":"SGP4","TIME_SYSTEM":"UTC","ECCENTRICITY":"0.00009790","REV_AT_EPOCH":"14951"},{"SITE":"AFETR","MEAN_MOTION":"15.06471560","EPHEMERIS_TYPE":"0","RCS_SIZE":"LARGE","PERIAPSIS":"545.856","TLE_LINE2":"2 46064  53.0522 172.8318 0001644  66.8683 293.2479 15.06471560150019","MEAN_MOTION_DOT":"0.00025425","MEAN_MOTION_DDOT":"0.0000000000000","LAUNCH_DATE":"2020-08-07","APOAPSIS":"548.133","OBJECT_TYPE":"PAYLOAD","GP_ID":"230391285","TLE_LINE1":"1 46064U 20055AP  23109.65919817  .00025425  00000-0  17163-2 0  9991","NORAD_CAT_ID":"46064","SEMIMAJOR_AXIS":"6925.129","MEAN_ANOMALY":"293.2479","ELEMENT_SET_NO":"999","CENTER_NAME":"EARTH","FILE":"3890520","EPOCH":"2023-04-19T15:49:14.721888","RA_OF_ASC_NODE":"172.8318","COUNTRY_CODE":"US","ARG_OF_PERICENTER":"66.8683","REF_FRAME":"TEME","BSTAR":"0.00171630000000","OBJECT_NAME":"STARLINK-1583","PERIOD":"95.588","OBJECT_ID":"2020-055AP","CLASSIFICATION_TYPE":"U","INCLINATION":"53.0522","DECAY_DATE":null,"REV_AT_EPOCH":"15001","MEAN_ELEMENT_THEORY":"SGP4","ECCENTRICITY":"0.00016440","TIME_SYSTEM":"UTC"},{"MEAN_MOTION_DOT":"0.00018263","TLE_LINE2":"2 46065  53.0533 151.9654 0001833  77.3980 282.7214 15.06432402150304","MEAN_MOTION_DDOT":"0.0000000000000","LAUNCH_DATE":"2020-08-07","APOAPSIS":"548.384","SITE":"AFETR","MEAN_MOTION":"15.06432402","PERIAPSIS":"545.845","EPHEMERIS_TYPE":"0","RCS_SIZE":"LARGE","SEMIMAJOR_AXIS":"6925.249","ELEMENT_SET_NO":"999","MEAN_ANOMALY":"282.7214","CENTER_NAME":"EARTH","TLE_LINE1":"1 46065U 20055AQ  23109.85177012  .00018263  00000-0  12407-2 0  9995","GP_ID":"230391035","OBJECT_TYPE":"PAYLOAD","NORAD_CAT_ID":"46065","RA_OF_ASC_NODE":"151.9654","ARG_OF_PERICENTER":"77.3980","COUNTRY_CODE":"US","REF_FRAME":"TEME","EPOCH":"2023-04-19T20:26:32.938368","FILE":"3890520","CLASSIFICATION_TYPE":"U","OBJECT_ID":"2020-055AQ","PERIOD":"95.590","DECAY_DATE":null,"INCLINATION":"53.0533","REV_AT_EPOCH":"15030","ECCENTRICITY":"0.00018330","TIME_SYSTEM":"UTC","MEAN_ELEMENT_THEORY":"SGP4","BSTAR":"0.00124070000000","OBJECT_NAME":"STARLINK-1515"},{"CENTER_NAME":"EARTH","SEMIMAJOR_AXIS":"6925.266","MEAN_ANOMALY":"275.3777","ELEMENT_SET_NO":"999","NORAD_CAT_ID":"46066","OBJECT_TYPE":"PAYLOAD","TLE_LINE1":"1 46066U 20055AR  23109.39197453  .00018488  00000-0  12559-2 0  9993","GP_ID":"230363076","LAUNCH_DATE":"2020-08-07","APOAPSIS":"548.341","MEAN_MOTION_DOT":"0.00018488","TLE_LINE2":"2 46066  53.0513 154.0318 0001747  84.7411 275.3777 15.06426892150240","MEAN_MOTION_DDOT":"0.0000000000000","RCS_SIZE":"LARGE","EPHEMERIS_TYPE":"0","PERIAPSIS":"545.921","SITE":"AFETR","MEAN_MOTION":"15.06426892","REV_AT_EPOCH":"15024","MEAN_ELEMENT_THEORY":"SGP4","ECCENTRICITY":"0.00017470","TIME_SYSTEM":"UTC","PERIOD":"95.590","OBJECT_ID":"2020-055AR","CLASSIFICATION_TYPE":"U","DECAY_DATE":null,"INCLINATION":"53.0513","BSTAR":"0.00125590000000","OBJECT_NAME":"STARLINK-1525","ARG_OF_PERICENTER":"84.7411","COUNTRY_CODE":"US","REF_FRAME":"TEME","RA_OF_ASC_NODE":"154.0318","FILE":"3890383","EPOCH":"2023-04-19T09:24:26.599392"},{"NORAD_CAT_ID":"46067","TLE_LINE1":"1 46067U 20055AS  23109.59374902  .00021754  00000-0  14731-2 0  9996","GP_ID":"230392035","OBJECT_TYPE":"PAYLOAD","CENTER_NAME":"EARTH","ELEMENT_SET_NO":"999","MEAN_ANOMALY":"284.6280","SEMIMAJOR_AXIS":"6925.218","PERIAPSIS":"546.181","EPHEMERIS_TYPE":"0","RCS_SIZE":"LARGE","MEAN_MOTION":"15.06442549","SITE":"AFETR","APOAPSIS":"547.985","LAUNCH_DATE":"2020-08-07","MEAN_MOTION_DDOT":"0.0000000000000","TLE_LINE2":"2 46067  53.0525 153.1138 0001302  75.4854 284.6280 15.06442549150282","MEAN_MOTION_DOT":"0.00021754","OBJECT_NAME":"STARLINK-1529","BSTAR":"0.00147310000000","TIME_SYSTEM":"UTC","ECCENTRICITY":"0.00013020","MEAN_ELEMENT_THEORY":"SGP4","REV_AT_EPOCH":"15028","DECAY_DATE":null,"INCLINATION":"53.0525","CLASSIFICATION_TYPE":"U","OBJECT_ID":"2020-055AS","PERIOD":"95.589","EPOCH":"2023-04-19T14:14:59.915328","FILE":"3890520","REF_FRAME":"TEME","COUNTRY_CODE":"US","ARG_OF_PERICENTER":"75.4854","RA_OF_ASC_NODE":"153.1138"},{"TLE_LINE2":"2 46068  53.0515 152.1741 0002394  80.4649 279.6610 15.06406030150311","MEAN_MOTION_DOT":"-0.00010580","MEAN_MOTION_DDOT":"0.0000000000000","LAUNCH_DATE":"2020-08-07","APOAPSIS":"548.853","SITE":"AFETR","MEAN_MOTION":"15.06406030","RCS_SIZE":"LARGE","EPHEMERIS_TYPE":"0","PERIAPSIS":"545.537","SEMIMAJOR_AXIS":"6925.330","MEAN_ANOMALY":"279.6610","ELEMENT_SET_NO":"999","CENTER_NAME":"EARTH","OBJECT_TYPE":"PAYLOAD","TLE_LINE1":"1 46068U 20055AT  23109.80385624 -.00010580  00000-0 -69223-3 0  9998","GP_ID":"230390785","NORAD_CAT_ID":"46068","RA_OF_ASC_NODE":"152.1741","ARG_OF_PERICENTER":"80.4649","COUNTRY_CODE":"US","REF_FRAME":"TEME","FILE":"3890520","EPOCH":"2023-04-19T19:17:33.179136","PERIOD":"95.592","OBJECT_ID":"2020-055AT","CLASSIFICATION_TYPE":"U","INCLINATION":"53.0515","DECAY_DATE":null,"REV_AT_EPOCH":"15031","MEAN_ELEMENT_THEORY":"SGP4","ECCENTRICITY":"0.00023940","TIME_SYSTEM":"UTC","BSTAR":"-0.00069223000000","OBJECT_NAME":"STARLINK-1532"}];
